start=new Date('2023-05-03T00:00:00.000Z').valueOf();
sats=[{"MEAN_ANOMALY":"262.9305","LAUNCH_DATE":"2022-05-06","DECAY_DATE":null,"RA_OF_ASC_NODE":"46.2849","PERIOD":"95.438","COUNTRY_CODE":"US","CLASSIFICATION_TYPE":"U","NORAD_CAT_ID":"52491","REF_FRAME":"TEME","BSTAR":"0.00003429100000","MEAN_ELEMENT_THEORY":"SGP4","TLE_LINE2":"2 52491  53.2180  46.2849 0001218  97.1825 262.9305 15.08839083 55102","EPHEMERIS_TYPE":"0","SITE":"AFETR","ARG_OF_PERICENTER":"97.1825","GP_ID":"231124450","MEAN_MOTION_DOT":"0.00000258","RCS_SIZE":"LARGE","MEAN_MOTION_DDOT":"0.0000000000000","OBJECT_NAME":"STARLINK-3908","MEAN_MOTION":"15.08839083","OBJECT_ID":"2022-049AS","TLE_LINE1":"1 52491U 22049AS  23122.81263839  .00000258  00000-0  34291-4 0  9996","INCLINATION":"53.2180","REV_AT_EPOCH":"5510","ELEMENT_SET_NO":"999","FILE":"3899277","TIME_SYSTEM":"UTC","SEMIMAJOR_AXIS":"6917.883","CENTER_NAME":"EARTH","ECCENTRICITY":"0.00012180","OBJECT_TYPE":"PAYLOAD","PERIAPSIS":"538.906","APOAPSIS":"540.591","EPOCH":"2023-05-02T19:30:11.956896"},{"COUNTRY_CODE":"US","MEAN_ANOMALY":"257.9351","PERIOD":"95.438","DECAY_DATE":null,"LAUNCH_DATE":"2022-05-06","RA_OF_ASC_NODE":"46.3451","REF_FRAME":"TEME","MEAN_ELEMENT_THEORY":"SGP4","BSTAR":"0.00010427000000","NORAD_CAT_ID":"52492","CLASSIFICATION_TYPE":"U","TLE_LINE2":"2 52492  53.2192  46.3451 0001596 102.1820 257.9351 15.08839134 55109","EPHEMERIS_TYPE":"0","SITE":"AFETR","ARG_OF_PERICENTER":"102.1820","GP_ID":"231124701","RCS_SIZE":"LARGE","MEAN_MOTION_DOT":"0.00001372","OBJECT_NAME":"STARLINK-3916","MEAN_MOTION_DDOT":"0.0000000000000","MEAN_MOTION":"15.08839134","OBJECT_ID":"2022-049AT","TLE_LINE1":"1 52492U 22049AT  23122.79791877  .00001372  00000-0  10427-3 0  9994","FILE":"3899277","INCLINATION":"53.2192","REV_AT_EPOCH":"5510","ELEMENT_SET_NO":"999","SEMIMAJOR_AXIS":"6917.883","CENTER_NAME":"EARTH","TIME_SYSTEM":"UTC","OBJECT_TYPE":"PAYLOAD","ECCENTRICITY":"0.00015960","PERIAPSIS":"538.644","EPOCH":"2023-05-02T19:09:00.181728","APOAPSIS":"540.852"},{"EPOCH":"2023-05-02T19:24:53.973792","APOAPSIS":"540.657","PERIAPSIS":"538.821","OBJECT_TYPE":"PAYLOAD","ECCENTRICITY":"0.00013270","SEMIMAJOR_AXIS":"6917.874","CENTER_NAME":"EARTH","TIME_SYSTEM":"UTC","FILE":"3899277","INCLINATION":"53.2178","REV_AT_EPOCH":"5510","ELEMENT_SET_NO":"999","TLE_LINE1":"1 52493U 22049AU  23122.80895803  .00001508  00000-0  11279-3 0  9998","MEAN_MOTION":"15.08842127","OBJECT_ID":"2022-049AU","OBJECT_NAME":"STARLINK-3883","MEAN_MOTION_DDOT":"0.0000000000000","MEAN_MOTION_DOT":"0.00001508","RCS_SIZE":"LARGE","GP_ID":"231125445","ARG_OF_PERICENTER":"110.6966","EPHEMERIS_TYPE":"0","TLE_LINE2":"2 52493  53.2178  46.2986 0001327 110.6966 249.4168 15.08842127 55101","SITE":"AFETR","REF_FRAME":"TEME","BSTAR":"0.00011279000000","MEAN_ELEMENT_THEORY":"SGP4","CLASSIFICATION_TYPE":"U","NORAD_CAT_ID":"52493","COUNTRY_CODE":"US","MEAN_ANOMALY":"249.4168","LAUNCH_DATE":"2022-05-06","DECAY_DATE":null,"RA_OF_ASC_NODE":"46.2986","PERIOD":"95.437"},{"CENTER_NAME":"EARTH","SEMIMAJOR_AXIS":"6917.863","TIME_SYSTEM":"UTC","TLE_LINE1":"1 52494U 22049AV  23122.19071969  .00002038  00000-0  14609-3 0  9999","FILE":"3899068","ELEMENT_SET_NO":"999","REV_AT_EPOCH":"5501","INCLINATION":"53.2168","PERIAPSIS":"538.914","EPOCH":"2023-05-02T04:34:38.181216","APOAPSIS":"540.541","OBJECT_TYPE":"PAYLOAD","ECCENTRICITY":"0.00011760","SITE":"AFETR","TLE_LINE2":"2 52494  53.2168  49.0766 0001176  91.3561 268.7566 15.08845707 55019","EPHEMERIS_TYPE":"0","GP_ID":"231093753","ARG_OF_PERICENTER":"91.3561","COUNTRY_CODE":"US","DECAY_DATE":null,"LAUNCH_DATE":"2022-05-06","RA_OF_ASC_NODE":"49.0766","PERIOD":"95.437","MEAN_ANOMALY":"268.7566","MEAN_ELEMENT_THEORY":"SGP4","BSTAR":"0.00014609000000","REF_FRAME":"TEME","NORAD_CAT_ID":"52494","CLASSIFICATION_TYPE":"U","OBJECT_NAME":"STARLINK-3857","MEAN_MOTION_DDOT":"0.0000000000000","OBJECT_ID":"2022-049AV","MEAN_MOTION":"15.08845707","RCS_SIZE":"LARGE","MEAN_MOTION_DOT":"0.00002038"},{"TLE_LINE1":"1 52495U 22049AW  23122.80159951  .00004161  00000-0  27948-3 0  9995","FILE":"3899277","REV_AT_EPOCH":"5510","INCLINATION":"53.2182","ELEMENT_SET_NO":"999","SEMIMAJOR_AXIS":"6917.929","CENTER_NAME":"EARTH","TIME_SYSTEM":"UTC","OBJECT_TYPE":"PAYLOAD","ECCENTRICITY":"0.00010610","PERIAPSIS":"539.060","EPOCH":"2023-05-02T19:14:18.197664","APOAPSIS":"540.528","COUNTRY_CODE":"US","MEAN_ANOMALY":"264.2337","RA_OF_ASC_NODE":"46.3305","DECAY_DATE":null,"LAUNCH_DATE":"2022-05-06","PERIOD":"95.439","REF_FRAME":"TEME","MEAN_ELEMENT_THEORY":"SGP4","BSTAR":"0.00027948000000","NORAD_CAT_ID":"52495","CLASSIFICATION_TYPE":"U","SITE":"AFETR","TLE_LINE2":"2 52495  53.2182  46.3305 0001061  95.8776 264.2337 15.08824252 55104","EPHEMERIS_TYPE":"0","GP_ID":"231123951","ARG_OF_PERICENTER":"95.8776","MEAN_MOTION_DOT":"0.00004161","RCS_SIZE":"LARGE","OBJECT_NAME":"STARLINK-3905","MEAN_MOTION_DDOT":"0.0000000000000","MEAN_MOTION":"15.08824252","OBJECT_ID":"2022-049AW"},{"EPHEMERIS_TYPE":"0","TLE_LINE2":"2 52496  53.2194  41.5472 0001389 106.9134 253.2011 15.08839835 55161","SITE":"AFETR","ARG_OF_PERICENTER":"106.9134","GP_ID":"231125202","COUNTRY_CODE":"US","MEAN_ANOMALY":"253.2011","LAUNCH_DATE":"2022-05-06","DECAY_DATE":null,"PERIOD":"95.438","RA_OF_ASC_NODE":"41.5472","REF_FRAME":"TEME","BSTAR":"0.00009086800000","MEAN_ELEMENT_THEORY":"SGP4","NORAD_CAT_ID":"52496","CLASSIFICATION_TYPE":"U","OBJECT_NAME":"STARLINK-3871","MEAN_MOTION_DDOT":"0.0000000000000","MEAN_MOTION":"15.08839835","OBJECT_ID":"2022-049AX","RCS_SIZE":"LARGE","MEAN_MOTION_DOT":"0.00001159","SEMIMAJOR_AXIS":"6917.881","CENTER_NAME":"EARTH","TIME_SYSTEM":"UTC","TLE_LINE1":"1 52496U 22049AX  23122.75605969  .00001159  00000-0  90868-4 0  9991","FILE":"3899277","INCLINATION":"53.2194","REV_AT_EPOCH":"5516","ELEMENT_SET_NO":"999","PERIAPSIS":"538.785","EPOCH":"2023-05-02T18:08:43.557216","APOAPSIS":"540.707","OBJECT_TYPE":"PAYLOAD","ECCENTRICITY":"0.00013890"},{"PERIAPSIS":"538.662","EPOCH":"2023-05-02T19:03:42.417216","APOAPSIS":"540.749","OBJECT_TYPE":"PAYLOAD","ECCENTRICITY":"0.00015080","SEMIMAJOR_AXIS":"6917.840","CENTER_NAME":"EARTH","TIME_SYSTEM":"UTC","TLE_LINE1":"1 52497U 22049AY  23122.79424094  .00006068  00000-0  39888-3 0  9992","FILE":"3899277","REV_AT_EPOCH":"5510","INCLINATION":"53.2162","ELEMENT_SET_NO":"999","OBJECT_NAME":"STARLINK-3884","MEAN_MOTION_DDOT":"0.0000000000000","MEAN_MOTION":"15.08853095","OBJECT_ID":"2022-049AY","MEAN_MOTION_DOT":"0.00006068","RCS_SIZE":"LARGE","SITE":"AFETR","TLE_LINE2":"2 52497  53.2162  46.3663 0001508  82.0562 278.0601 15.08853095 55102","EPHEMERIS_TYPE":"0","GP_ID":"231124945","ARG_OF_PERICENTER":"82.0562","COUNTRY_CODE":"US","MEAN_ANOMALY":"278.0601","DECAY_DATE":null,"PERIOD":"95.437","LAUNCH_DATE":"2022-05-06","RA_OF_ASC_NODE":"46.3663","REF_FRAME":"TEME","MEAN_ELEMENT_THEORY":"SGP4","BSTAR":"0.00039888000000","CLASSIFICATION_TYPE":"U","NORAD_CAT_ID":"52497"},{"TIME_SYSTEM":"UTC","SEMIMAJOR_AXIS":"6917.852","CENTER_NAME":"EARTH","TLE_LINE1":"1 52498U 22049AZ  23122.90187903  .00003669  00000-0  24841-3 0  9998","INCLINATION":"53.2177","REV_AT_EPOCH":"5525","ELEMENT_SET_NO":"999","FILE":"3899277","PERIAPSIS":"538.918","APOAPSIS":"540.516","EPOCH":"2023-05-02T21:38:42.348192","ECCENTRICITY":"0.00011550","OBJECT_TYPE":"PAYLOAD","TLE_LINE2":"2 52498  53.2177  35.8879 0001155  83.2431 276.8692 15.08849369 55258","SITE":"AFETR","EPHEMERIS_TYPE":"0","GP_ID":"231124202","ARG_OF_PERICENTER":"83.2431","MEAN_ANOMALY":"276.8692","PERIOD":"95.437","DECAY_DATE":null,"LAUNCH_DATE":"2022-05-06","RA_OF_ASC_NODE":"35.8879","COUNTRY_CODE":"US","CLASSIFICATION_TYPE":"U","NORAD_CAT_ID":"52498","REF_FRAME":"TEME","BSTAR":"0.00024841000000","MEAN_ELEMENT_THEORY":"SGP4","MEAN_MOTION_DDOT":"0.0000000000000","OBJECT_NAME":"STARLINK-3925","MEAN_MOTION":"15.08849369","OBJECT_ID":"2022-049AZ","RCS_SIZE":"LARGE","MEAN_MOTION_DOT":"0.00003669"},{"REV_AT_EPOCH":"5517","INCLINATION":"53.2160","ELEMENT_SET_NO":"999","FILE":"3899245","TLE_LINE1":"1 52499U 22049BA  23122.19439795  .00009252  00000-0  59834-3 0  9993","TIME_SYSTEM":"UTC","SEMIMAJOR_AXIS":"6917.822","CENTER_NAME":"EARTH","ECCENTRICITY":"0.00012800","OBJECT_TYPE":"PAYLOAD","APOAPSIS":"540.572","EPOCH":"2023-05-02T04:39:55.982880","PERIAPSIS":"538.801","NORAD_CAT_ID":"52499","CLASSIFICATION_TYPE":"U","REF_FRAME":"TEME","BSTAR":"0.00059834000000","MEAN_ELEMENT_THEORY":"SGP4","MEAN_ANOMALY":"262.5359","DECAY_DATE":null,"PERIOD":"95.436","LAUNCH_DATE":"2022-05-06","RA_OF_ASC_NODE":"49.0584","COUNTRY_CODE":"US","GP_ID":"231100522","ARG_OF_PERICENTER":"97.5778","TLE_LINE2":"2 52499  53.2160  49.0584 0001280  97.5778 262.5359 15.08859158 55172","SITE":"AFETR","EPHEMERIS_TYPE":"0","RCS_SIZE":"LARGE","MEAN_MOTION_DOT":"0.00009252","MEAN_MOTION":"15.08859158","OBJECT_ID":"2022-049BA","MEAN_MOTION_DDOT":"0.0000000000000","OBJECT_NAME":"STARLINK-3894"},{"FILE":"3899277","ELEMENT_SET_NO":"999","REV_AT_EPOCH":"5525","INCLINATION":"53.2173","TLE_LINE1":"1 52500U 22049BB  23122.89819610  .00005242  00000-0  34705-3 0  9996","CENTER_NAME":"EARTH","SEMIMAJOR_AXIS":"6917.836","TIME_SYSTEM":"UTC","OBJECT_TYPE":"PAYLOAD","ECCENTRICITY":"0.00012650","EPOCH":"2023-05-02T21:33:24.143040","APOAPSIS":"540.576","PERIAPSIS":"538.826","MEAN_ELEMENT_THEORY":"SGP4","BSTAR":"0.00034705000000","REF_FRAME":"TEME","NORAD_CAT_ID":"52500","CLASSIFICATION_TYPE":"U","COUNTRY_CODE":"US","DECAY_DATE":null,"RA_OF_ASC_NODE":"35.9014","LAUNCH_DATE":"2022-05-06","PERIOD":"95.437","MEAN_ANOMALY":"262.5284","GP_ID":"231124702","ARG_OF_PERICENTER":"97.5852","TLE_LINE2":"2 52500  53.2173  35.9014 0001265  97.5852 262.5284 15.08854572 55258","EPHEMERIS_TYPE":"0","SITE":"AFETR","RCS_SIZE":"LARGE","MEAN_MOTION_DOT":"0.00005242","OBJECT_ID":"2022-049BB","MEAN_MOTION":"15.08854572","OBJECT_NAME":"STARLINK-3866","MEAN_MOTION_DDOT":"0.0000000000000"}];
